{
   "type": "FeatureCollection",
   "features": [
  {
    "type": "Feature",
    "geometry": {
       "type": "Point",
       "coordinates":  [ 121.4759522,25.0134923 ]
    },
    "properties": {
    "id":402,
    "name":"民生市民活動中心",
    "city":"新北市",
    "district":"板橋區",
    "village":"東丘里",
    "address":"新北市板橋區東丘里民生路一段30-1號1~3樓",
    "type":"未知",
    "suit_for_flood":"1",
    "suit_for_mudflow":"1",
    "suit_for_earthquake":"1",
    "suit_for_tsunami":"1",
    "indoor":"1",
    "outdoor":"1",
    "person":292,
    "full_address":"新北市板橋區新北市板橋區東丘里民生路一段30-1號1~3樓"
    }
  },
  {
    "type": "Feature",
    "geometry": {
       "type": "Point",
       "coordinates":  [ 121.4707157,25.0201668 ]
    },
    "properties": {
    "id":403,
    "name":"板橋莊敬市民活動中心　",
    "city":"新北市",
    "district":"板橋區",
    "village":"莊敬里",
    "address":"新北市板橋區莊敬里民生路二段120號1樓",
    "type":"未知",
    "suit_for_flood":"1",
    "suit_for_mudflow":"1",
    "suit_for_earthquake":"1",
    "suit_for_tsunami":"1",
    "indoor":"1",
    "outdoor":"0",
    "person":151,
    "full_address":"新北市板橋區新北市板橋區莊敬里民生路二段120號1樓"
    }
  },
  {
    "type": "Feature",
    "geometry": {
       "type": "Point",
       "coordinates":  [ 121.4580067,25.0111002 ]
    },
    "properties": {
    "id":404,
    "name":"板橋國小",
    "city":"新北市",
    "district":"板橋區",
    "village":"黃石里",
    "address":"新北市板橋區黃石里文化路一段23號",
    "type":"未知",
    "suit_for_flood":"1",
    "suit_for_mudflow":"0",
    "suit_for_earthquake":"1",
    "suit_for_tsunami":"0",
    "indoor":"1",
    "outdoor":"0",
    "person":1112,
    "full_address":"新北市板橋區新北市板橋區黃石里文化路一段23號"
    }
  },
  {
    "type": "Feature",
    "geometry": {
       "type": "Point",
       "coordinates":  [ 121.4589005,25.0233902 ]
    },
    "properties": {
    "id":405,
    "name":"文德國小",
    "city":"新北市",
    "district":"板橋區",
    "village":"幸福里",
    "address":"新北市板橋區幸福里英士路179號",
    "type":"未知",
    "suit_for_flood":"0",
    "suit_for_mudflow":"0",
    "suit_for_earthquake":"1",
    "suit_for_tsunami":"0",
    "indoor":"1",
    "outdoor":"0",
    "person":2292,
    "full_address":"新北市板橋區新北市板橋區幸福里英士路179號"
    }
  },
  {
    "type": "Feature",
    "geometry": {
       "type": "Point",
       "coordinates":  [ 121.4732596,25.0322229 ]
    },
    "properties": {
    "id":406,
    "name":"江翠國小",
    "city":"新北市",
    "district":"板橋區",
    "village":"柏翠里",
    "address":"新北市板橋區柏翠里文化路二段413號",
    "type":"未知",
    "suit_for_flood":"0",
    "suit_for_mudflow":"1",
    "suit_for_earthquake":"1",
    "suit_for_tsunami":"1",
    "indoor":"1",
    "outdoor":"0",
    "person":334,
    "full_address":"新北市板橋區新北市板橋區柏翠里文化路二段413號"
    }
  },
  {
    "type": "Feature",
    "geometry": {
       "type": "Point",
       "coordinates":  [ 121.4773958,25.0285737 ]
    },
    "properties": {
    "id":407,
    "name":"文聖國小",
    "city":"新北市",
    "district":"板橋區",
    "village":"龍翠里",
    "address":"新北市板橋區龍翠里15鄰文聖街86號",
    "type":"未知",
    "suit_for_flood":"0",
    "suit_for_mudflow":"0",
    "suit_for_earthquake":"1",
    "suit_for_tsunami":"0",
    "indoor":"1",
    "outdoor":"0",
    "person":595,
    "full_address":"新北市板橋區新北市板橋區龍翠里15鄰文聖街86號"
    }
  },
  {
    "type": "Feature",
    "geometry": {
       "type": "Point",
       "coordinates":  [ 121.4743612,25.0185053 ]
    },
    "properties": {
    "id":408,
    "name":"埔墘國小",
    "city":"新北市",
    "district":"板橋區",
    "village":"光仁里",
    "address":"新北市板橋區光仁里永豐街42-8號",
    "type":"未知",
    "suit_for_flood":"1",
    "suit_for_mudflow":"0",
    "suit_for_earthquake":"1",
    "suit_for_tsunami":"0",
    "indoor":"1",
    "outdoor":"0",
    "person":162,
    "full_address":"新北市板橋區新北市板橋區光仁里永豐街42-8號"
    }
  },
  {
    "type": "Feature",
    "geometry": {
       "type": "Point",
       "coordinates":  [ 121.4669799,25.0054862 ]
    },
    "properties": {
    "id":409,
    "name":"實踐國小",
    "city":"新北市",
    "district":"板橋區",
    "village":"國泰里",
    "address":"新北市板橋區國泰里實踐路93巷51號",
    "type":"未知",
    "suit_for_flood":"1",
    "suit_for_mudflow":"1",
    "suit_for_earthquake":"1",
    "suit_for_tsunami":"0",
    "indoor":"1",
    "outdoor":"0",
    "person":1018,
    "full_address":"新北市板橋區新北市板橋區國泰里實踐路93巷51號"
    }
  },
  {
    "type": "Feature",
    "geometry": {
       "type": "Point",
       "coordinates":  [ 121.4632932,25.003519 ]
    },
    "properties": {
    "id":410,
    "name":"後埔國小",
    "city":"新北市",
    "district":"板橋區",
    "village":"福星里",
    "address":"新北市板橋區福星里重慶路157號",
    "type":"未知",
    "suit_for_flood":"1",
    "suit_for_mudflow":"0",
    "suit_for_earthquake":"1",
    "suit_for_tsunami":"0",
    "indoor":"1",
    "outdoor":"0",
    "person":295,
    "full_address":"新北市板橋區新北市板橋區福星里重慶路157號"
    }
  },
  {
    "type": "Feature",
    "geometry": {
       "type": "Point",
       "coordinates":  [ 121.4520602,24.9914842 ]
    },
    "properties": {
    "id":411,
    "name":"信義國小",
    "city":"新北市",
    "district":"板橋區",
    "village":"華德里",
    "address":"新北市板橋區華德里四川路2段245巷60號",
    "type":"未知",
    "suit_for_flood":"0",
    "suit_for_mudflow":"0",
    "suit_for_earthquake":"1",
    "suit_for_tsunami":"0",
    "indoor":"1",
    "outdoor":"0",
    "person":430,
    "full_address":"新北市板橋區新北市板橋區華德里四川路2段245巷60號"
    }
  },
  {
    "type": "Feature",
    "geometry": {
       "type": "Point",
       "coordinates":  [ 121.4485866,25.0014964 ]
    },
    "properties": {
    "id":412,
    "name":"中山國小",
    "city":"新北市",
    "district":"板橋區",
    "village":"中山里",
    "address":"新北市板橋區中山里大觀路二段59巷31號",
    "type":"未知",
    "suit_for_flood":"1",
    "suit_for_mudflow":"0",
    "suit_for_earthquake":"1",
    "suit_for_tsunami":"0",
    "indoor":"1",
    "outdoor":"0",
    "person":386,
    "full_address":"新北市板橋區新北市板橋區中山里大觀路二段59巷31號"
    }
  },
  {
    "type": "Feature",
    "geometry": {
       "type": "Point",
       "coordinates":  [ 121.4304958,24.989644 ]
    },
    "properties": {
    "id":413,
    "name":"沙崙國小",
    "city":"新北市",
    "district":"板橋區",
    "village":"溪北里",
    "address":"新北市板橋區溪北里篤行路二段132號",
    "type":"未知",
    "suit_for_flood":"0",
    "suit_for_mudflow":"0",
    "suit_for_earthquake":"1",
    "suit_for_tsunami":"0",
    "indoor":"1",
    "outdoor":"0",
    "person":1692,
    "full_address":"新北市板橋區新北市板橋區溪北里篤行路二段132號"
    }
  },
  {
    "type": "Feature",
    "geometry": {
       "type": "Point",
       "coordinates":  [ 121.4309087,24.9873876 ]
    },
    "properties": {
    "id":414,
    "name":"溪洲國小",
    "city":"新北市",
    "district":"板橋區",
    "village":"堂春里",
    "address":"新北市板橋區堂春里金門街289號",
    "type":"未知",
    "suit_for_flood":"0",
    "suit_for_mudflow":"1",
    "suit_for_earthquake":"1",
    "suit_for_tsunami":"1",
    "indoor":"1",
    "outdoor":"0",
    "person":1492,
    "full_address":"新北市板橋區新北市板橋區堂春里金門街289號"
    }
  },
  {
    "type": "Feature",
    "geometry": {
       "type": "Point",
       "coordinates":  [ 121.4627141,24.9936212 ]
    },
    "properties": {
    "id":415,
    "name":"重慶國小",
    "city":"新北市",
    "district":"板橋區",
    "village":"五權里",
    "address":"新北市板橋區五權里廣和街31號",
    "type":"未知",
    "suit_for_flood":"1",
    "suit_for_mudflow":"1",
    "suit_for_earthquake":"0",
    "suit_for_tsunami":"1",
    "indoor":"1",
    "outdoor":"0",
    "person":788,
    "full_address":"新北市板橋區新北市板橋區五權里廣和街31號"
    }
  },
  {
    "type": "Feature",
    "geometry": {
       "type": "Point",
       "coordinates":  [ 121.4494217,25.0085816 ]
    },
    "properties": {
    "id":416,
    "name":"大觀國小",
    "city":"新北市",
    "district":"板橋區",
    "village":"浮洲里",
    "address":"新北市板橋區浮洲里大觀路一段30號",
    "type":"未知",
    "suit_for_flood":"1",
    "suit_for_mudflow":"0",
    "suit_for_earthquake":"1",
    "suit_for_tsunami":"0",
    "indoor":"1",
    "outdoor":"0",
    "person":1392,
    "full_address":"新北市板橋區新北市板橋區浮洲里大觀路一段30號"
    }
  },
  {
    "type": "Feature",
    "geometry": {
       "type": "Point",
       "coordinates":  [ 121.4735628,25.026039 ]
    },
    "properties": {
    "id":417,
    "name":"莒光國小",
    "city":"新北市",
    "district":"板橋區",
    "village":"華翠里",
    "address":"新北市板橋區華翠里莒光路163號",
    "type":"未知",
    "suit_for_flood":"1",
    "suit_for_mudflow":"0",
    "suit_for_earthquake":"1",
    "suit_for_tsunami":"0",
    "indoor":"1",
    "outdoor":"0",
    "person":297,
    "full_address":"新北市板橋區新北市板橋區華翠里莒光路163號"
    }
  },
  {
    "type": "Feature",
    "geometry": {
       "type": "Point",
       "coordinates":  [ 121.4530821,25.0194107 ]
    },
    "properties": {
    "id":418,
    "name":"國光國小",
    "city":"新北市",
    "district":"板橋區",
    "village":"香社里",
    "address":"新北市板橋區香社里中正路325巷30號",
    "type":"未知",
    "suit_for_flood":"1",
    "suit_for_mudflow":"0",
    "suit_for_earthquake":"1",
    "suit_for_tsunami":"0",
    "indoor":"1",
    "outdoor":"0",
    "person":1045,
    "full_address":"新北市板橋區新北市板橋區香社里中正路325巷30號"
    }
  },
  {
    "type": "Feature",
    "geometry": {
       "type": "Point",
       "coordinates":  [ 121.4531168,25.0249806 ]
    },
    "properties": {
    "id":419,
    "name":"板橋國中",
    "city":"新北市",
    "district":"板橋區",
    "village":"中正里",
    "address":"新北市板橋區中正里中正路437號",
    "type":"未知",
    "suit_for_flood":"1",
    "suit_for_mudflow":"1",
    "suit_for_earthquake":"1",
    "suit_for_tsunami":"0",
    "indoor":"1",
    "outdoor":"0",
    "person":1628,
    "full_address":"新北市板橋區新北市板橋區中正里中正路437號"
    }
  },
  {
    "type": "Feature",
    "geometry": {
       "type": "Point",
       "coordinates":  [ 121.4616794,25.0040418 ]
    },
    "properties": {
    "id":420,
    "name":"忠孝國中",
    "city":"新北市",
    "district":"板橋區",
    "village":"福星里",
    "address":"新北市板橋區福星里重慶路168號",
    "type":"未知",
    "suit_for_flood":"1",
    "suit_for_mudflow":"1",
    "suit_for_earthquake":"1",
    "suit_for_tsunami":"1",
    "indoor":"1",
    "outdoor":"0",
    "person":340,
    "full_address":"新北市板橋區新北市板橋區福星里重慶路168號"
    }
  },
  {
    "type": "Feature",
    "geometry": {
       "type": "Point",
       "coordinates":  [ 121.45883,25.024968 ]
    },
    "properties": {
    "id":421,
    "name":"新埔國中",
    "city":"新北市",
    "district":"板橋區",
    "village":"新海里",
    "address":"新北市板橋區新海里新海路181號",
    "type":"未知",
    "suit_for_flood":"1",
    "suit_for_mudflow":"0",
    "suit_for_earthquake":"1",
    "suit_for_tsunami":"0",
    "indoor":"1",
    "outdoor":"0",
    "person":1011,
    "full_address":"新北市板橋區新北市板橋區新海里新海路181號"
    }
  },
  {
    "type": "Feature",
    "geometry": {
       "type": "Point",
       "coordinates":  [ 121.4648999,25.0159145 ]
    },
    "properties": {
    "id":422,
    "name":"中山國中",
    "city":"新北市",
    "district":"板橋區",
    "village":"新民里",
    "address":"新北市板橋區新民里文化路1段188巷56號",
    "type":"未知",
    "suit_for_flood":"0",
    "suit_for_mudflow":"1",
    "suit_for_earthquake":"1",
    "suit_for_tsunami":"1",
    "indoor":"1",
    "outdoor":"0",
    "person":2280,
    "full_address":"新北市板橋區新北市板橋區新民里文化路1段188巷56號"
    }
  },
  {
    "type": "Feature",
    "geometry": {
       "type": "Point",
       "coordinates":  [ 121.4683966,25.0289268 ]
    },
    "properties": {
    "id":423,
    "name":"江翠國中",
    "city":"新北市",
    "district":"板橋區",
    "village":"文化里",
    "address":"新北市板橋區文化里松江街63號",
    "type":"未知",
    "suit_for_flood":"1",
    "suit_for_mudflow":"1",
    "suit_for_earthquake":"1",
    "suit_for_tsunami":"1",
    "indoor":"1",
    "outdoor":"0",
    "person":892,
    "full_address":"新北市板橋區新北市板橋區文化里松江街63號"
    }
  },
  {
    "type": "Feature",
    "geometry": {
       "type": "Point",
       "coordinates":  [ 121.482023,25.0157232 ]
    },
    "properties": {
    "id":424,
    "name":"光復高中",
    "city":"新北市",
    "district":"板橋區",
    "village":"富貴里",
    "address":"新北市板橋區富貴里光環路1段7號",
    "type":"未知",
    "suit_for_flood":"0",
    "suit_for_mudflow":"1",
    "suit_for_earthquake":"0",
    "suit_for_tsunami":"0",
    "indoor":"1",
    "outdoor":"0",
    "person":310,
    "full_address":"新北市板橋區新北市板橋區富貴里光環路1段7號"
    }
  },
  {
    "type": "Feature",
    "geometry": {
       "type": "Point",
       "coordinates":  [ 121.432248,24.9961713 ]
    },
    "properties": {
    "id":425,
    "name":"溪崑國中",
    "city":"新北市",
    "district":"板橋區",
    "village":"崑崙里",
    "address":"新北市板橋區崑崙里大觀路三段50巷30號",
    "type":"未知",
    "suit_for_flood":"1",
    "suit_for_mudflow":"0",
    "suit_for_earthquake":"1",
    "suit_for_tsunami":"0",
    "indoor":"1",
    "outdoor":"0",
    "person":728,
    "full_address":"新北市板橋區新北市板橋區崑崙里大觀路三段50巷30號"
    }
  },
  {
    "type": "Feature",
    "geometry": {
       "type": "Point",
       "coordinates":  [ 121.4628467,24.9981349 ]
    },
    "properties": {
    "id":426,
    "name":"重慶國中",
    "city":"新北市",
    "district":"板橋區",
    "village":"重慶里",
    "address":"新北市板橋區重慶里國慶路221號",
    "type":"未知",
    "suit_for_flood":"1",
    "suit_for_mudflow":"1",
    "suit_for_earthquake":"1",
    "suit_for_tsunami":"1",
    "indoor":"1",
    "outdoor":"0",
    "person":502,
    "full_address":"新北市板橋區新北市板橋區重慶里國慶路221號"
    }
  },
  {
    "type": "Feature",
    "geometry": {
       "type": "Point",
       "coordinates":  [ 121.4718833,25.0095208 ]
    },
    "properties": {
    "id":427,
    "name":"海山高中",
    "city":"新北市",
    "district":"板橋區",
    "village":"深丘里",
    "address":"新北市板橋區深丘里漢生東路215號",
    "type":"未知",
    "suit_for_flood":"1",
    "suit_for_mudflow":"0",
    "suit_for_earthquake":"1",
    "suit_for_tsunami":"0",
    "indoor":"1",
    "outdoor":"0",
    "person":2122,
    "full_address":"新北市板橋區新北市板橋區深丘里漢生東路215號"
    }
  },
  {
    "type": "Feature",
    "geometry": {
       "type": "Point",
       "coordinates":  [ 121.4482954,25.0111215 ]
    },
    "properties": {
    "id":428,
    "name":"大觀國中",
    "city":"新北市",
    "district":"板橋區",
    "village":"浮洲里",
    "address":"新北市板橋區浮洲里僑中一街1號",
    "type":"未知",
    "suit_for_flood":"1",
    "suit_for_mudflow":"1",
    "suit_for_earthquake":"1",
    "suit_for_tsunami":"1",
    "indoor":"1",
    "outdoor":"0",
    "person":869,
    "full_address":"新北市板橋區新北市板橋區浮洲里僑中一街1號"
    }
  },
  {
    "type": "Feature",
    "geometry": {
       "type": "Point",
       "coordinates":  [ 121.4586374,25.0122628 ]
    },
    "properties": {
    "id":429,
    "name":"板橋高中",
    "city":"新北市",
    "district":"板橋區",
    "village":"黃石里",
    "address":"新北市板橋區黃石里文化路一段25號",
    "type":"未知",
    "suit_for_flood":"1",
    "suit_for_mudflow":"1",
    "suit_for_earthquake":"1",
    "suit_for_tsunami":"1",
    "indoor":"1",
    "outdoor":"1",
    "person":563,
    "full_address":"新北市板橋區新北市板橋區黃石里文化路一段25號"
    }
  },
  {
    "type": "Feature",
    "geometry": {
       "type": "Point",
       "coordinates":  [ 121.4690951,25.0103693 ]
    },
    "properties": {
    "id":430,
    "name":"板橋第一運動公園",
    "city":"新北市",
    "district":"板橋區",
    "village":"深丘里",
    "address":"新北市板橋區深丘里漢生東路278號",
    "type":"未知",
    "suit_for_flood":"0",
    "suit_for_mudflow":"0",
    "suit_for_earthquake":"1",
    "suit_for_tsunami":"0",
    "indoor":"1",
    "outdoor":"0",
    "person":1630,
    "full_address":"新北市板橋區新北市板橋區深丘里漢生東路278號"
    }
  },
  {
    "type": "Feature",
    "geometry": {
       "type": "Point",
       "coordinates":  [ 121.4582189,25.0137914 ]
    },
    "properties": {
    "id":431,
    "name":"板橋第二運動公園",
    "city":"新北市",
    "district":"板橋區",
    "village":"社後里",
    "address":"新北市板橋區社後里民權路117號",
    "type":"未知",
    "suit_for_flood":"0",
    "suit_for_mudflow":"0",
    "suit_for_earthquake":"1",
    "suit_for_tsunami":"0",
    "indoor":"1",
    "outdoor":"0",
    "person":1120,
    "full_address":"新北市板橋區新北市板橋區社後里民權路117號"
    }
  }
]
}